start=new Date('2022-04-09T00:00:00.000Z').valueOf();
sats=[{"SEMIMAJOR_AXIS":"6925.337","OBJECT_TYPE":"PAYLOAD","RCS_SIZE":"LARGE","SITE":"AFETR","BSTAR":"0.00002999900000","APOAPSIS":"548.208","MEAN_MOTION_DDOT":"0.0000000000000","NORAD_CAT_ID":"47369","INCLINATION":"53.0545","MEAN_MOTION_DOT":"0.00000165","MEAN_MOTION":"15.06403716","RA_OF_ASC_NODE":"344.9228","TIME_SYSTEM":"UTC","PERIAPSIS":"546.196","OBJECT_ID":"2021-005W","ARG_OF_PERICENTER":"60.2247","CENTER_NAME":"EARTH","PERIOD":"95.592","MEAN_ELEMENT_THEORY":"SGP4","ECCENTRICITY":"0.00014530","EPOCH":"2022-04-08T20:23:23.109792","FILE":"3393990","COUNTRY_CODE":"US","REF_FRAME":"TEME","OBJECT_NAME":"STARLINK-2085","ELEMENT_SET_NO":"999","EPHEMERIS_TYPE":"0","TLE_LINE2":"2 47369  53.0545 344.9228 0001453  60.2247 299.8886 15.06403716 67667","REV_AT_EPOCH":"6766","CLASSIFICATION_TYPE":"U","GP_ID":"200781639","DECAY_DATE":null,"LAUNCH_DATE":"2021-01-20","MEAN_ANOMALY":"299.8886","TLE_LINE1":"1 47369U 21005W   22098.84957303  .00000165  00000-0  29999-4 0  9991"},{"RCS_SIZE":"LARGE","SEMIMAJOR_AXIS":"6925.321","OBJECT_TYPE":"PAYLOAD","APOAPSIS":"548.790","MEAN_MOTION_DDOT":"0.0000000000000","BSTAR":"0.00018543000000","SITE":"AFETR","TIME_SYSTEM":"UTC","RA_OF_ASC_NODE":"324.8086","MEAN_MOTION":"15.06408899","INCLINATION":"53.0552","MEAN_MOTION_DOT":"0.00002482","NORAD_CAT_ID":"47370","OBJECT_ID":"2021-005X","PERIAPSIS":"545.582","COUNTRY_CODE":"US","FILE":"3393990","ECCENTRICITY":"0.00023160","EPOCH":"2022-04-08T20:57:53.207136","PERIOD":"95.592","MEAN_ELEMENT_THEORY":"SGP4","ARG_OF_PERICENTER":"38.9886","CENTER_NAME":"EARTH","EPHEMERIS_TYPE":"0","ELEMENT_SET_NO":"999","OBJECT_NAME":"STARLINK-2086","REF_FRAME":"TEME","LAUNCH_DATE":"2021-01-20","GP_ID":"200780387","DECAY_DATE":null,"CLASSIFICATION_TYPE":"U","REV_AT_EPOCH":"6795","TLE_LINE2":"2 47370  53.0552 324.8086 0002316  38.9886 321.1269 15.06408899 67959","TLE_LINE1":"1 47370U 21005X   22098.87353249  .00002482  00000-0  18543-3 0  9991","MEAN_ANOMALY":"321.1269"},{"OBJECT_NAME":"STARLINK-2088","REF_FRAME":"TEME","EPHEMERIS_TYPE":"0","ELEMENT_SET_NO":"999","PERIOD":"95.592","MEAN_ELEMENT_THEORY":"SGP4","ARG_OF_PERICENTER":"61.3209","CENTER_NAME":"EARTH","FILE":"3393990","COUNTRY_CODE":"US","ECCENTRICITY":"0.00014630","EPOCH":"2022-04-08T20:36:39.170880","MEAN_ANOMALY":"298.7927","TLE_LINE1":"1 47371U 21005Y   22098.85878670  .00002989  00000-0  21939-3 0  9995","CLASSIFICATION_TYPE":"U","TLE_LINE2":"2 47371  53.0568   4.8686 0001463  61.3209 298.7927 15.06408313 67387","REV_AT_EPOCH":"6738","LAUNCH_DATE":"2021-01-20","DECAY_DATE":null,"GP_ID":"200781137","SITE":"AFETR","MEAN_MOTION_DDOT":"0.0000000000000","APOAPSIS":"548.201","BSTAR":"0.00021939000000","RCS_SIZE":"LARGE","SEMIMAJOR_AXIS":"6925.323","OBJECT_TYPE":"PAYLOAD","PERIAPSIS":"546.175","OBJECT_ID":"2021-005Y","INCLINATION":"53.0568","MEAN_MOTION_DOT":"0.00002989","NORAD_CAT_ID":"47371","TIME_SYSTEM":"UTC","MEAN_MOTION":"15.06408313","RA_OF_ASC_NODE":"4.8686"},{"TIME_SYSTEM":"UTC","RA_OF_ASC_NODE":"359.7243","MEAN_MOTION":"15.06418445","MEAN_MOTION_DOT":"0.00005134","INCLINATION":"53.0574","NORAD_CAT_ID":"47372","OBJECT_ID":"2021-005Z","PERIAPSIS":"546.133","RCS_SIZE":"LARGE","OBJECT_TYPE":"PAYLOAD","SEMIMAJOR_AXIS":"6925.292","APOAPSIS":"548.181","MEAN_MOTION_DDOT":"0.0000000000000","BSTAR":"0.00036310000000","SITE":"AFETR","LAUNCH_DATE":"2021-01-20","DECAY_DATE":null,"GP_ID":"200781389","CLASSIFICATION_TYPE":"U","REV_AT_EPOCH":"6745","TLE_LINE2":"2 47372  53.0574 359.7243 0001478  90.6032 269.5126 15.06418445 67453","TLE_LINE1":"1 47372U 21005Z   22098.88963194  .00005134  00000-0  36310-3 0  9999","MEAN_ANOMALY":"269.5126","COUNTRY_CODE":"US","FILE":"3393990","EPOCH":"2022-04-08T21:21:04.199616","ECCENTRICITY":"0.00014780","MEAN_ELEMENT_THEORY":"SGP4","PERIOD":"95.591","CENTER_NAME":"EARTH","ARG_OF_PERICENTER":"90.6032","EPHEMERIS_TYPE":"0","ELEMENT_SET_NO":"999","OBJECT_NAME":"STARLINK-2089","REF_FRAME":"TEME"},{"SITE":"AFETR","APOAPSIS":"548.357","MEAN_MOTION_DDOT":"0.0000000000000","BSTAR":"0.00018232000000","RCS_SIZE":"LARGE","OBJECT_TYPE":"PAYLOAD","SEMIMAJOR_AXIS":"6925.338","PERIAPSIS":"546.049","OBJECT_ID":"2021-005AA","MEAN_MOTION_DOT":"0.00002435","INCLINATION":"53.0552","NORAD_CAT_ID":"47373","TIME_SYSTEM":"UTC","RA_OF_ASC_NODE":"6.6611","MEAN_MOTION":"15.06403519","OBJECT_NAME":"STARLINK-2092","REF_FRAME":"TEME","EPHEMERIS_TYPE":"0","ELEMENT_SET_NO":"999","MEAN_ELEMENT_THEORY":"SGP4","PERIOD":"95.592","CENTER_NAME":"EARTH","ARG_OF_PERICENTER":"59.4072","COUNTRY_CODE":"US","FILE":"3393517","EPOCH":"2022-04-08T10:58:06.911616","ECCENTRICITY":"0.00016660","MEAN_ANOMALY":"300.7081","TLE_LINE1":"1 47373U 21005AA  22098.45702444  .00002435  00000-0  18232-3 0  9996","CLASSIFICATION_TYPE":"U","TLE_LINE2":"2 47373  53.0552   6.6611 0001666  59.4072 300.7081 15.06403519 67323","REV_AT_EPOCH":"6732","LAUNCH_DATE":"2021-01-20","GP_ID":"200747401","DECAY_DATE":null},{"PERIAPSIS":"546.079","OBJECT_ID":"2021-005AB","NORAD_CAT_ID":"47374","INCLINATION":"53.0499","MEAN_MOTION_DOT":"0.00004075","RA_OF_ASC_NODE":"4.8020","MEAN_MOTION":"15.06410571","TIME_SYSTEM":"UTC","SITE":"AFETR","BSTAR":"0.00029222000000","APOAPSIS":"548.284","MEAN_MOTION_DDOT":"0.0000000000000","SEMIMAJOR_AXIS":"6925.316","OBJECT_TYPE":"PAYLOAD","RCS_SIZE":"LARGE","MEAN_ANOMALY":"296.2918","TLE_LINE1":"1 47374U 21005AB  22098.87626893  .00004075  00000-0  29222-3 0  9999","REV_AT_EPOCH":"6738","TLE_LINE2":"2 47374  53.0499   4.8020 0001592  63.8235 296.2918 15.06410571 67386","CLASSIFICATION_TYPE":"U","DECAY_DATE":null,"GP_ID":"200780887","LAUNCH_DATE":"2021-01-20","REF_FRAME":"TEME","OBJECT_NAME":"STARLINK-2093","ELEMENT_SET_NO":"999","EPHEMERIS_TYPE":"0","CENTER_NAME":"EARTH","ARG_OF_PERICENTER":"63.8235","PERIOD":"95.591","MEAN_ELEMENT_THEORY":"SGP4","ECCENTRICITY":"0.00015920","EPOCH":"2022-04-08T21:01:49.635552","FILE":"3393990","COUNTRY_CODE":"US"},{"ECCENTRICITY":"0.00014480","EPOCH":"2022-04-08T21:08:29.776416","COUNTRY_CODE":"US","FILE":"3393990","ARG_OF_PERICENTER":"70.5371","CENTER_NAME":"EARTH","PERIOD":"95.591","MEAN_ELEMENT_THEORY":"SGP4","ELEMENT_SET_NO":"999","EPHEMERIS_TYPE":"0","REF_FRAME":"TEME","OBJECT_NAME":"STARLINK-2094","DECAY_DATE":null,"GP_ID":"200780638","LAUNCH_DATE":"2021-01-20","REV_AT_EPOCH":"6738","TLE_LINE2":"2 47375  53.0541   4.7823 0001448  70.5371 289.5775 15.06411176 67389","CLASSIFICATION_TYPE":"U","TLE_LINE1":"1 47375U 21005AC  22098.88090019  .00002571  00000-0  19135-3 0  9997","MEAN_ANOMALY":"289.5775","SEMIMAJOR_AXIS":"6925.314","OBJECT_TYPE":"PAYLOAD","RCS_SIZE":"LARGE","BSTAR":"0.00019135000000","APOAPSIS":"548.182","MEAN_MOTION_DDOT":"0.0000000000000","SITE":"AFETR","RA_OF_ASC_NODE":"4.7823","MEAN_MOTION":"15.06411176","TIME_SYSTEM":"UTC","NORAD_CAT_ID":"47375","INCLINATION":"53.0541","MEAN_MOTION_DOT":"0.00002571","OBJECT_ID":"2021-005AC","PERIAPSIS":"546.177"},{"SEMIMAJOR_AXIS":"6925.287","OBJECT_TYPE":"PAYLOAD","RCS_SIZE":"LARGE","SITE":"AFETR","BSTAR":"0.00046948000000","MEAN_MOTION_DDOT":"0.0000000000000","APOAPSIS":"548.290","NORAD_CAT_ID":"47376","INCLINATION":"53.0554","MEAN_MOTION_DOT":"0.00006722","MEAN_MOTION":"15.06420190","RA_OF_ASC_NODE":"4.7583","TIME_SYSTEM":"UTC","PERIAPSIS":"546.013","OBJECT_ID":"2021-005AD","ARG_OF_PERICENTER":"67.6567","CENTER_NAME":"EARTH","PERIOD":"95.591","MEAN_ELEMENT_THEORY":"SGP4","ECCENTRICITY":"0.00016440","EPOCH":"2022-04-08T21:13:48.894816","COUNTRY_CODE":"US","FILE":"3393908","REF_FRAME":"TEME","OBJECT_NAME":"STARLINK-2096","ELEMENT_SET_NO":"999","EPHEMERIS_TYPE":"0","TLE_LINE2":"2 47376  53.0554   4.7583 0001644  67.6567 292.4597 15.06420190 67380","REV_AT_EPOCH":"6738","CLASSIFICATION_TYPE":"U","DECAY_DATE":null,"GP_ID":"200758032","LAUNCH_DATE":"2021-01-20","MEAN_ANOMALY":"292.4597","TLE_LINE1":"1 47376U 21005AD  22098.88459369  .00006722  00000-0  46948-3 0  9999"},{"CLASSIFICATION_TYPE":"U","TLE_LINE2":"2 47377  53.0556   6.6161 0001535  67.6981 292.4170 15.06412615 67329","REV_AT_EPOCH":"6732","LAUNCH_DATE":"2021-01-20","GP_ID":"200746902","DECAY_DATE":null,"MEAN_ANOMALY":"292.4170","TLE_LINE1":"1 47377U 21005AE  22098.47177423  .00007663  00000-0  53260-3 0  9993","MEAN_ELEMENT_THEORY":"SGP4","PERIOD":"95.591","ARG_OF_PERICENTER":"67.6981","CENTER_NAME":"EARTH","FILE":"3393517","COUNTRY_CODE":"US","EPOCH":"2022-04-08T11:19:21.293472","ECCENTRICITY":"0.00015350","OBJECT_NAME":"STARLINK-2097","REF_FRAME":"TEME","EPHEMERIS_TYPE":"0","ELEMENT_SET_NO":"999","MEAN_MOTION_DOT":"0.00007663","INCLINATION":"53.0556","NORAD_CAT_ID":"47377","TIME_SYSTEM":"UTC","RA_OF_ASC_NODE":"6.6161","MEAN_MOTION":"15.06412615","PERIAPSIS":"546.112","OBJECT_ID":"2021-005AE","RCS_SIZE":"LARGE","OBJECT_TYPE":"PAYLOAD","SEMIMAJOR_AXIS":"6925.310","SITE":"AFETR","APOAPSIS":"548.238","MEAN_MOTION_DDOT":"0.0000000000000","BSTAR":"0.00053260000000"},{"PERIAPSIS":"546.179","OBJECT_ID":"2021-005AF","MEAN_MOTION_DOT":"0.00000826","INCLINATION":"53.0556","NORAD_CAT_ID":"47378","TIME_SYSTEM":"UTC","MEAN_MOTION":"15.06402961","RA_OF_ASC_NODE":"324.5607","SITE":"AFETR","APOAPSIS":"548.230","MEAN_MOTION_DDOT":"0.0000000000000","BSTAR":"0.00007436000000","RCS_SIZE":"LARGE","OBJECT_TYPE":"PAYLOAD","SEMIMAJOR_AXIS":"6925.339","MEAN_ANOMALY":"291.3102","TLE_LINE1":"1 47378U 21005AF  22098.92881897  .00000826  00000-0  74360-4 0  9990","CLASSIFICATION_TYPE":"U","REV_AT_EPOCH":"6795","TLE_LINE2":"2 47378  53.0556 324.5607 0001481  68.8045 291.3102 15.06402961 67956","LAUNCH_DATE":"2021-01-20","GP_ID":"200780388","DECAY_DATE":null,"OBJECT_NAME":"STARLINK-2098","REF_FRAME":"TEME","EPHEMERIS_TYPE":"0","ELEMENT_SET_NO":"999","MEAN_ELEMENT_THEORY":"SGP4","PERIOD":"95.592","CENTER_NAME":"EARTH","ARG_OF_PERICENTER":"68.8045","FILE":"3393990","COUNTRY_CODE":"US","EPOCH":"2022-04-08T22:17:29.959008","ECCENTRICITY":"0.00014810"}];
